{"spkid": "54571051", "covariance": {"labels": ["e", "q", "tp", "node", "peri", "i"], "data": [["2.227726803445929E-14", "-2.120203308568617E-14", "-3.220085320011449E-12", "-9.045276326129592E-13", "-3.216732485010343E-14", "1.362706327341079E-12"], ["-2.120203308568617E-14", "2.018672923416093E-14", "3.164684055096881E-12", "8.840726144279382E-13", "6.796412364265252E-14", "-1.301989485811318E-12"], ["-3.220085320011449E-12", "3.164684055096881E-12", "1.83246795415354E-9", "4.602080412789695E-10", "5.047738389083274E-10", "-2.707467113298085E-10"], ["-9.045276326129592E-13", "8.840726144279382E-13", "4.602080412789695E-10", "3.384650753606037E-10", "-9.344895234699967E-11", "-1.317980877669086E-10"], ["-3.216732485010343E-14", "6.796412364265252E-14", "5.047738389083274E-10", "-9.344895234699967E-11", "4.056111313117603E-10", "3.225526816841713E-11"], ["1.362706327341079E-12", "-1.301989485811318E-12", "-2.707467113298085E-10", "-1.317980877669086E-10", "3.225526816841713E-11", "1.593709652239517E-10"]], "elements": [{"label": "e", "sigma": 1.49255713573917e-07, "name": "e", "units": null, "value": ".4672627169924724", "title": "eccentricity"}, {"label": "q", "value": ".5047014541535181", "title": "perihelion distance", "units": "au", "sigma": 1.4208000997382e-07, "name": "q"}, {"label": "tp", "name": "tp", "sigma": 4.28073352844292e-05, "value": "2460145.558132722010", "title": "time of perihelion passage", "units": "TDB"}, {"label": "node", "value": "302.9785517282187", "title": "longitude of the ascending node", "units": "deg", "name": "om", "sigma": 1.83974203452713e-05}, {"units": "deg", "title": "argument of perihelion", "value": "314.0107148573874", "sigma": 2.0139789753415e-05, "name": "w", "label": "peri"}, {"units": "deg", "title": "inclination", "value": "15.56105332125636", "sigma": 1.26242213709976e-05, "name": "i", "label": "i"}], "epoch": "2460179.5"}, "elements": [{"label": "e", "units": null, "title": "eccentricity", "value": ".4672543704200302", "sigma": "1.4916E-7", "name": "e"}, {"label": "a", "units": "au", "title": "semi-major axis", "value": ".9473756755226297", "name": "a", "sigma": "5.5059E-9"}, {"value": ".5047102507050525", "title": "perihelion distance", "units": "au", "name": "q", "sigma": "1.4204E-7", "label": "q"}, {"sigma": "1.2636E-5", "name": "i", "title": "inclination; angle with respect to x-y ecliptic plane", "value": "15.56335342416606", "units": "deg", "label": "i"}, {"units": "deg", "title": "longitude of the ascending node", "value": "302.9452637553402", "name": "om", "sigma": "1.8367E-5", "label": "node"}, {"sigma": "2.0165E-5", "name": "w", "title": "argument of perihelion", "value": "314.0340666467156", "units": "deg", "label": "peri"}, {"sigma": "5.4805E-5", "name": "ma", "title": "mean anomaly", "value": "47.66271116670482", "units": "deg", "label": "M"}, {"label": "tp", "units": "TDB", "title": "time of perihelion passage", "value": "2461155.907890982236", "sigma": "5.0907E-5", "name": "tp"}, {"label": "period", "sigma": "2.9361E-6", "name": "per", "units": "d", "value": "336.8075137448113", "title": "sidereal orbital period"}, {"label": "n", "units": "deg/d", "value": "1.068859765025197", "title": "mean motion", "name": "n", "sigma": "9.3178E-9"}, {"units": "au", "title": "aphelion distance", "value": "1.390041100340207", "name": "ad", "sigma": "8.0785E-9", "label": "Q"}], "epoch": "2461200.5"}